{
  "type": "FeatureCollection",
  "features": [
    {
      "type": "Feature",
      "properties": {
        "norad_id": 27954,
        "name": "GALAXY 13 (HORIZONS-1)",
        "group": "intelsat",
        "lat": 0.5156925148436048,
        "lon": 116.99213404505961,
        "alt_km": 35794.64799568736,
        "timestamp": "2025-12-27T11:23:19.545143+00:00",
        "meta_object_name": "GALAXY 13 (HORIZONS-1)",
        "meta_object_id": "2003-044A",
        "meta_epoch": "2025-12-27T02:00:56.333376",
        "meta_mean_motion": 1.00272762,
        "meta_eccentricity": 0.0002288,
        "meta_inclination": 0.974,
        "meta_ra_of_asc_node": 86.2856,
        "meta_arg_of_pericenter": 188.2728,
        "meta_mean_anomaly": 61.471,
        "meta_ephemeris_type": 0,
        "meta_classification_type": "U",
        "meta_norad_cat_id": 27954,
        "meta_element_set_no": 999,
        "meta_rev_at_epoch": 4484,
        "meta_bstar": 0,
        "meta_mean_motion_dot": 1.55e-06,
        "meta_mean_motion_ddot": 0,
        "tle_line1": "1 27954U 03044A   25361.08398534  .00000155  00000+0  00000+0 0  9994",
        "tle_line2": "2 27954   0.9740  86.2856 0002288 188.2728  61.4710  1.00272762 44846"
      },
      "geometry": {
        "type": "Point",
        "coordinates": [
          116.99213404505961,
          0.5156925148436048
        ]
      }
    },
    {
      "type": "Feature",
      "properties": {
        "norad_id": 28358,
        "name": "INTELSAT 10-02",
        "group": "intelsat",
        "lat": -0.023950583576778036,
        "lon": -93.94070204147478,
        "alt_km": 35782.20778136852,
        "timestamp": "2025-12-27T11:23:19.545156+00:00",
        "meta_object_name": "INTELSAT 10-02",
        "meta_object_id": "2004-022A",
        "meta_epoch": "2025-12-27T02:43:29.755776",
        "meta_mean_motion": 1.00270144,
        "meta_eccentricity": 0.0001271,
        "meta_inclination": 0.0165,
        "meta_ra_of_asc_node": 51.4001,
        "meta_arg_of_pericenter": 251.2068,
        "meta_mean_anomaly": 193.1572,
        "meta_ephemeris_type": 0,
        "meta_classification_type": "U",
        "meta_norad_cat_id": 28358,
        "meta_element_set_no": 999,
        "meta_rev_at_epoch": 7883,
        "meta_bstar": 0,
        "meta_mean_motion_dot": 1.1e-07,
        "meta_mean_motion_ddot": 0,
        "tle_line1": "1 28358U 04022A   25361.11353884  .00000011  00000+0  00000+0 0  9994",
        "tle_line2": "2 28358   0.0165  51.4001 0001271 251.2068 193.1572  1.00270144 78839"
      },
      "geometry": {
        "type": "Point",
        "coordinates": [
          -93.94070204147478,
          -0.023950583576778036
        ]
      }
    },
    {
      "type": "Feature",
      "properties": {
        "norad_id": 28626,
        "name": "XM-3 (RHYTHM)",
        "group": "intelsat",
        "lat": -0.17368224773777188,
        "lon": -48.75159735291895,
        "alt_km": 36153.31303013385,
        "timestamp": "2025-12-27T11:23:19.545168+00:00",
        "meta_object_name": "XM-3 (RHYTHM)",
        "meta_object_id": "2005-008A",
        "meta_epoch": "2025-12-27T02:56:50.978400",
        "meta_mean_motion": 0.98950674,
        "meta_eccentricity": 0.0002297,
        "meta_inclination": 0.2097,
        "meta_ra_of_asc_node": 82.3398,
        "meta_arg_of_pericenter": 271.0604,
        "meta_mean_anomaly": 192.5803,
        "meta_ephemeris_type": 0,
        "meta_classification_type": "U",
        "meta_norad_cat_id": 28626,
        "meta_element_set_no": 999,
        "meta_rev_at_epoch": 4089,
        "meta_bstar": 0,
        "meta_mean_motion_dot": 7.4e-07,
        "meta_mean_motion_ddot": 0,
        "tle_line1": "1 28626U 05008A   25361.12281225  .00000074  00000+0  00000+0 0  9996",
        "tle_line2": "2 28626   0.2097  82.3398 0002297 271.0604 192.5803  0.98950674 40894"
      },
      "geometry": {
        "type": "Point",
        "coordinates": [
          -48.75159735291895,
          -0.17368224773777188
        ]
      }
    },
    {
      "type": "Feature",
      "properties": {
        "norad_id": 28659,
        "name": "DIRECTV 8",
        "group": "intelsat",
        "lat": 0.02609706522835228,
        "lon": 147.96503137893788,
        "alt_km": 35795.7939607473,
        "timestamp": "2025-12-27T11:23:19.545186+00:00",
        "meta_object_name": "DIRECTV 8",
        "meta_object_id": "2005-019A",
        "meta_epoch": "2025-12-26T09:14:16.477152",
        "meta_mean_motion": 1.00271765,
        "meta_eccentricity": 0.0003134,
        "meta_inclination": 0.0135,
        "meta_ra_of_asc_node": 57.3028,
        "meta_arg_of_pericenter": 228.1398,
        "meta_mean_anomaly": 189.2168,
        "meta_ephemeris_type": 0,
        "meta_classification_type": "U",
        "meta_norad_cat_id": 28659,
        "meta_element_set_no": 999,
        "meta_rev_at_epoch": 7534,
        "meta_bstar": 0,
        "meta_mean_motion_dot": 2.3e-07,
        "meta_mean_motion_ddot": 0,
        "tle_line1": "1 28659U 05019A   25360.38491293  .00000023  00000+0  00000+0 0  9993",
        "tle_line2": "2 28659   0.0135  57.3028 0003134 228.1398 189.2168  1.00271765 75343"
      },
      "geometry": {
        "type": "Point",
        "coordinates": [
          147.96503137893788,
          0.02609706522835228
        ]
      }
    },
    {
      "type": "Feature",
      "properties": {
        "norad_id": 28702,
        "name": "GALAXY 28 (G-28)",
        "group": "intelsat",
        "lat": 2.7481795643490696,
        "lon": -172.82411858656067,
        "alt_km": 35686.014954030965,
        "timestamp": "2025-12-27T11:23:19.545197+00:00",
        "meta_object_name": "GALAXY 28 (G-28)",
        "meta_object_id": "2005-022A",
        "meta_epoch": "2025-12-27T04:19:27.648768",
        "meta_mean_motion": 1.00599471,
        "meta_eccentricity": 0.0003418,
        "meta_inclination": 2.8568,
        "meta_ra_of_asc_node": 81.1139,
        "meta_arg_of_pericenter": 161.5266,
        "meta_mean_anomaly": 197.9493,
        "meta_ephemeris_type": 0,
        "meta_classification_type": "U",
        "meta_norad_cat_id": 28702,
        "meta_element_set_no": 999,
        "meta_rev_at_epoch": 5024,
        "meta_bstar": 0,
        "meta_mean_motion_dot": -2.35e-06,
        "meta_mean_motion_ddot": 0,
        "tle_line1": "1 28702U 05022A   25361.18018112 -.00000235  00000+0  00000+0 0  9996",
        "tle_line2": "2 28702   2.8568  81.1139 0003418 161.5266 197.9493  1.00599471 50245"
      },
      "geometry": {
        "type": "Point",
        "coordinates": [
          -172.82411858656067,
          2.7481795643490696
        ]
      }
    },
    {
      "type": "Feature",
      "properties": {
        "norad_id": 29236,
        "name": "GALAXY 16 (G-16)",
        "group": "intelsat",
        "lat": -0.017390874879232555,
        "lon": 167.98857056570952,
        "alt_km": 35790.552360195405,
        "timestamp": "2025-12-27T11:23:19.545209+00:00",
        "meta_object_name": "GALAXY 16 (G-16)",
        "meta_object_id": "2006-023A",
        "meta_epoch": "2025-12-27T04:20:38.793120",
        "meta_mean_motion": 1.00271184,
        "meta_eccentricity": 0.0002754,
        "meta_inclination": 0.0374,
        "meta_ra_of_asc_node": 206.2569,
        "meta_arg_of_pericenter": 73.3748,
        "meta_mean_anomaly": 142.4352,
        "meta_ephemeris_type": 0,
        "meta_classification_type": "U",
        "meta_norad_cat_id": 29236,
        "meta_element_set_no": 999,
        "meta_rev_at_epoch": 7124,
        "meta_bstar": 0,
        "meta_mean_motion_dot": -1.04e-06,
        "meta_mean_motion_ddot": 0,
        "tle_line1": "1 29236U 06023A   25361.18100455 -.00000104  00000+0  00000+0 0  9998",
        "tle_line2": "2 29236   0.0374 206.2569 0002754  73.3748 142.4352  1.00271184 71247"
      },
      "geometry": {
        "type": "Point",
        "coordinates": [
          167.98857056570952,
          -0.017390874879232555
        ]
      }
    },
    {
      "type": "Feature",
      "properties": {
        "norad_id": 29494,
        "name": "DIRECTV 9S",
        "group": "intelsat",
        "lat": 1.9683764370828292,
        "lon": 165.7897669312734,
        "alt_km": 35791.606367071676,
        "timestamp": "2025-12-27T11:23:19.545221+00:00",
        "meta_object_name": "DIRECTV 9S",
        "meta_object_id": "2006-043A",
        "meta_epoch": "2025-12-27T04:37:38.707104",
        "meta_mean_motion": 1.00271328,
        "meta_eccentricity": 0.0003126,
        "meta_inclination": 1.9755,
        "meta_ra_of_asc_node": 83.0558,
        "meta_arg_of_pericenter": 198.0561,
        "meta_mean_anomaly": 143.0226,
        "meta_ephemeris_type": 0,
        "meta_classification_type": "U",
        "meta_norad_cat_id": 29494,
        "meta_element_set_no": 999,
        "meta_rev_at_epoch": 4965,
        "meta_bstar": 0,
        "meta_mean_motion_dot": -9.2e-07,
        "meta_mean_motion_ddot": 0,
        "tle_line1": "1 29494U 06043A   25361.19280911 -.00000092  00000+0  00000+0 0  9999",
        "tle_line2": "2 29494   1.9755  83.0558 0003126 198.0561 143.0226  1.00271328 49654"
      },
      "geometry": {
        "type": "Point",
        "coordinates": [
          165.7897669312734,
          1.9683764370828292
        ]
      }
    }
  ]
}